{"type": "FeatureCollection", "features": [ {"type": "Feature", "properties": {"norad_id": 44476, "name": "INTELSAT 39 (IS-39)", "group": "intelsat", "lat": -0.015976481765579437, "lon": -34.839142459252315, "alt_km": 35790.86884033001, "timestamp": "2025-12-21T11:31:42.510378+00:00", "meta": {"OBJECT_NAME": "INTELSAT 39 (IS-39)", "OBJECT_ID": "2019-049B", "EPOCH": "2025-12-21T03:13:13.989216", "MEAN_MOTION": 1.00270691, "ECCENTRICITY": 0.000108, "INCLINATION": 0.0007, "RA_OF_ASC_NODE": 359.8011, "ARG_OF_PERICENTER": 136.8582, "MEAN_ANOMALY": 63.5532, "EPHEMERIS_TYPE": 0, "CLASSIFICATION_TYPE": "U", "NORAD_CAT_ID": 44476, "ELEMENT_SET_NO": 999, "REV_AT_EPOCH": 2334, "BSTAR": 0, "MEAN_MOTION_DOT": 5.7e-07, "MEAN_MOTION_DDOT": 0}, "tle": {"line1": "1 44476U 19049B   25355.13418969  .00000057  00000+0  00000+0 0  9999", "line2": "2 44476   0.0007 359.8011 0001080 136.8582  63.5532  1.00270691 23345"}}, "geometry": {"type": "Point", "coordinates": [-34.839142459252315, -0.015976481765579437]}}, {"type": "Feature", "properties": {"norad_id": 46114, "name": "GALAXY 30 (G-30)", "group": "intelsat", "lat": 0.02543821568104037, "lon": 138.22450956592326, "alt_km": 35791.48931446168, "timestamp": "2025-12-21T11:31:42.510391+00:00", "meta": {"OBJECT_NAME": "GALAXY 30 (G-30)", "OBJECT_ID": "2020-056C", "EPOCH": "2025-12-21T00:37:13.929888", "MEAN_MOTION": 1.00273357, "ECCENTRICITY": 0.0002029, "INCLINATION": 0.0178, "RA_OF_ASC_NODE": 349.0054, "ARG_OF_PERICENTER": 282.3653, "MEAN_ANOMALY": 62.8096, "EPHEMERIS_TYPE": 0, "CLASSIFICATION_TYPE": "U", "NORAD_CAT_ID": 46114, "ELEMENT_SET_NO": 999, "REV_AT_EPOCH": 1950, "BSTAR": 0, "MEAN_MOTION_DOT": 6e-07, "MEAN_MOTION_DDOT": 0}, "tle": {"line1": "1 46114U 20056C   25355.02585567  .00000060  00000+0  00000+0 0  9991", "line2": "2 46114   0.0178 349.0054 0002029 282.3653  62.8096  1.00273357 19505"}}, "geometry": {"type": "Point", "coordinates": [138.22450956592326, 0.02543821568104037]}}, {"type": "Feature", "properties": {"norad_id": 54026, "name": "GALAXY 33 (G-33)", "group": "intelsat", "lat": 0.0350180765009919, "lon": 130.20728040774955, "alt_km": 35791.1765651039, "timestamp": "2025-12-21T11:31:42.510404+00:00", "meta": {"OBJECT_NAME": "GALAXY 33 (G-33)", "OBJECT_ID": "2022-128A", "EPOCH": "2025-12-21T02:17:34.319040", "MEAN_MOTION": 1.00271436, "ECCENTRICITY": 0.0001551, "INCLINATION": 0.0167, "RA_OF_ASC_NODE": 47.8689, "ARG_OF_PERICENTER": 222.3092, "MEAN_ANOMALY": 81.136, "EPHEMERIS_TYPE": 0, "CLASSIFICATION_TYPE": "U", "NORAD_CAT_ID": 54026, "ELEMENT_SET_NO": 999, "REV_AT_EPOCH": 1195, "BSTAR": 0, "MEAN_MOTION_DOT": 1.02e-06, "MEAN_MOTION_DDOT": 0}, "tle": {"line1": "1 54026U 22128A   25355.09553610  .00000102  00000+0  00000+0 0  9992", "line2": "2 54026   0.0167  47.8689 0001551 222.3092  81.1360  1.00271436 11956"}}, "geometry": {"type": "Point", "coordinates": [130.20728040774955, 0.0350180765009919]}}, {"type": "Feature", "properties": {"norad_id": 54027, "name": "GALAXY 34 (G-34)", "group": "intelsat", "lat": 0.04130480586393163, "lon": 134.24820255206728, "alt_km": 35791.965081231414, "timestamp": "2025-12-21T11:31:42.510416+00:00", "meta": {"OBJECT_NAME": "GALAXY 34 (G-34)", "OBJECT_ID": "2022-128B", "EPOCH": "2025-12-21T00:36:06.537024", "MEAN_MOTION": 1.00268046, "ECCENTRICITY": 0.0001836, "INCLINATION": 0.0236, "RA_OF_ASC_NODE": 14.3694, "ARG_OF_PERICENTER": 248.5905, "MEAN_ANOMALY": 66.9705, "EPHEMERIS_TYPE": 0, "CLASSIFICATION_TYPE": "U", "NORAD_CAT_ID": 54027, "ELEMENT_SET_NO": 999, "REV_AT_EPOCH": 1212, "BSTAR": 0, "MEAN_MOTION_DOT": 0, "MEAN_MOTION_DDOT": 0}, "tle": {"line1": "1 54027U 22128B   25355.02507566  .00000000  00000+0  00000+0 0  9992", "line2": "2 54027   0.0236  14.3694 0001836 248.5905  66.9705  1.00268046 12125"}}, "geometry": {"type": "Point", "coordinates": [134.24820255206728, 0.04130480586393163]}}, {"type": "Feature", "properties": {"norad_id": 54243, "name": "GALAXY 31 (G-31)", "group": "intelsat", "lat": 0.024394118107451283, "lon": 142.20657407135786, "alt_km": 35790.5098096095, "timestamp": "2025-12-21T11:31:42.510428+00:00", "meta": {"OBJECT_NAME": "GALAXY 31 (G-31)", "OBJECT_ID": "2022-153A", "EPOCH": "2025-12-21T04:32:38.608800", "MEAN_MOTION": 1.00271219, "ECCENTRICITY": 0.0001379, "INCLINATION": 0.0225, "RA_OF_ASC_NODE": 87.4466, "ARG_OF_PERICENTER": 192.028, "MEAN_ANOMALY": 117.6986, "EPHEMERIS_TYPE": 0, "CLASSIFICATION_TYPE": "U", "NORAD_CAT_ID": 54243, "ELEMENT_SET_NO": 999, "REV_AT_EPOCH": 534, "BSTAR": 0, "MEAN_MOTION_DOT": 3.6e-07, "MEAN_MOTION_DDOT": 0}, "tle": {"line1": "1 54243U 22153A   25355.18933575  .00000036  00000+0  00000+0 0  9999", "line2": "2 54243   0.0225  87.4466 0001379 192.0280 117.6986  1.00271219  5349"}}, "geometry": {"type": "Point", "coordinates": [142.20657407135786, 0.024394118107451283]}}, {"type": "Feature", "properties": {"norad_id": 54244, "name": "GALAXY 32 (G-32)", "group": "intelsat", "lat": -0.0031174310684320924, "lon": 172.20739912143205, "alt_km": 35793.36851974839, "timestamp": "2025-12-21T11:31:42.510440+00:00", "meta": {"OBJECT_NAME": "GALAXY 32 (G-32)", "OBJECT_ID": "2022-153B", "EPOCH": "2025-12-21T02:29:33.172224", "MEAN_MOTION": 1.00270567, "ECCENTRICITY": 0.0001947, "INCLINATION": 0.0109, "RA_OF_ASC_NODE": 336.7866, "ARG_OF_PERICENTER": 343.2976, "MEAN_ANOMALY": 76.2353, "EPHEMERIS_TYPE": 0, "CLASSIFICATION_TYPE": "U", "NORAD_CAT_ID": 54244, "ELEMENT_SET_NO": 999, "REV_AT_EPOCH": 1135, "BSTAR": 0, "MEAN_MOTION_DOT": -1.51e-06, "MEAN_MOTION_DDOT": 0}, "tle": {"line1": "1 54244U 22153B   25355.10385616 -.00000151  00000+0  00000+0 0  9998", "line2": "2 54244   0.0109 336.7866 0001947 343.2976  76.2353  1.00270567 11359"}}, "geometry": {"type": "Point", "coordinates": [172.20739912143205, -0.0031174310684320924]}}, {"type": "Feature", "properties": {"norad_id": 54741, "name": "GALAXY 35 (G-35)", "group": "intelsat", "lat": 0.018077237440306537, "lon": 170.1014913514795, "alt_km": 35788.063438024605, "timestamp": "2025-12-21T11:31:42.510452+00:00", "meta": {"OBJECT_NAME": "GALAXY 35 (G-35)", "OBJECT_ID": "2022-170A", "EPOCH": "2025-12-21T04:16:38.932032", "MEAN_MOTION": 1.00272061, "ECCENTRICITY": 0.0002156, "INCLINATION": 0.0142, "RA_OF_ASC_NODE": 64.6907, "ARG_OF_PERICENTER": 208.3803, "MEAN_ANOMALY": 148.0001, "EPHEMERIS_TYPE": 0, "CLASSIFICATION_TYPE": "U", "NORAD_CAT_ID": 54741, "ELEMENT_SET_NO": 999, "REV_AT_EPOCH": 1110, "BSTAR": 0, "MEAN_MOTION_DOT": -1.39e-06, "MEAN_MOTION_DDOT": 0}, "tle": {"line1": "1 54741U 22170A   25355.17822838 -.00000139  00000+0  00000+0 0  9994", "line2": "2 54741   0.0142  64.6907 0002156 208.3803 148.0001  1.00272061 11106"}}, "geometry": {"type": "Point", "coordinates": [170.1014913514795, 0.018077237440306537]}}, {"type": "Feature", "properties": {"norad_id": 54742, "name": "GALAXY 36 (G-36)", "group": "intelsat", "lat": 0.015246839531808784, "lon": 174.21034239443813, "alt_km": 35788.587728617975, "timestamp": "2025-12-21T11:31:42.510465+00:00", "meta": {"OBJECT_NAME": "GALAXY 36 (G-36)", "OBJECT_ID": "2022-170B", "EPOCH": "2025-12-21T02:30:10.611072", "MEAN_MOTION": 1.00269248, "ECCENTRICITY": 4.23e-05, "INCLINATION": 0.015, "RA_OF_ASC_NODE": 27.8559, "ARG_OF_PERICENTER": 324.0859, "MEAN_ANOMALY": 46.527, "EPHEMERIS_TYPE": 0, "CLASSIFICATION_TYPE": "U", "NORAD_CAT_ID": 54742, "ELEMENT_SET_NO": 999, "REV_AT_EPOCH": 1098, "BSTAR": 0, "MEAN_MOTION_DOT": 0, "MEAN_MOTION_DDOT": 0}, "tle": {"line1": "1 54742U 22170B   25355.10428948  .00000000  00000+0  00000+0 0  9998", "line2": "2 54742   0.0150  27.8559 0000423 324.0859  46.5270  1.00269248 10980"}}, "geometry": {"type": "Point", "coordinates": [174.21034239443813, 0.015246839531808784]}}, {"type": "Feature", "properties": {"norad_id": 57493, "name": "GALAXY 37 (G-37)", "group": "intelsat", "lat": 0.030842640486749732, "lon": 136.1960512609589, "alt_km": 35792.14805391893, "timestamp": "2025-12-21T11:31:42.510476+00:00", "meta": {"OBJECT_NAME": "GALAXY 37 (G-37)", "OBJECT_ID": "2023-112A", "EPOCH": "2025-12-21T00:36:36.490176", "MEAN_MOTION": 1.00271014, "ECCENTRICITY": 0.0001924, "INCLINATION": 0.0148, "RA_OF_ASC_NODE": 5.4291, "ARG_OF_PERICENTER": 266.9843, "MEAN_ANOMALY": 59.584, "EPHEMERIS_TYPE": 0, "CLASSIFICATION_TYPE": "U", "NORAD_CAT_ID": 57493, "ELEMENT_SET_NO": 999, "REV_AT_EPOCH": 875, "BSTAR": 0, "MEAN_MOTION_DOT": 7.1e-07, "MEAN_MOTION_DDOT": 0}, "tle": {"line1": "1 57493U 23112A   25355.02542234  .00000071  00000+0  00000+0 0  9995", "line2": "2 57493   0.0148   5.4291 0001924 266.9843  59.5840  1.00271014  8755"}}, "geometry": {"type": "Point", "coordinates": [136.1960512609589, 0.030842640486749732]}}]}